HAWK-11C                
1 62381U 24247E   26068.51221537  .00009223  00000+0  33290-3 0  9992
2 62381  45.0045 114.8762 0005900 329.7040  30.3502 15.28848020 67743
STARLINK-32774          
1 62737U 25014C   26068.32059886  .00036440  00000+0  13263-2 0  9993
2 62737  43.0002 159.7013 0002823 289.4482  70.6064 15.27599235 63161
